CCSDS_OMM_VERS = 2.0
CREATION_DATE  = 
ORIGINATOR     = 

OBJECT_NAME    = GSLV R/B
OBJECT_ID      = 2022-138AN
CENTER_NAME    = EARTH
REF_FRAME      = TEME
TIME_SYSTEM    = UTC
MEAN_ELEMENT_THEORY = SGP/SGP4

EPOCH          = 2026-03-05T05:47:40.551648
MEAN_MOTION    = 14.96738149
ECCENTRICITY   = .00223919
INCLINATION    = 87.3887
RA_OF_ASC_NODE = 167.8509
ARG_OF_PERICENTER = 162.0590
MEAN_ANOMALY   = 198.1437

EPHEMERIS_TYPE = 0
CLASSIFICATION_TYPE = U
NORAD_CAT_ID   = 54149
ELEMENT_SET_NO = 999
REV_AT_EPOCH   = 18326
BSTAR          = .41075251E-3
MEAN_MOTION_DOT = .4744E-4
MEAN_MOTION_DDOT = 0

CCSDS_OMM_VERS = 2.0
CREATION_DATE  = 
ORIGINATOR     = 

OBJECT_NAME    = XRISM
OBJECT_ID      = 2023-137A
CENTER_NAME    = EARTH
REF_FRAME      = TEME
TIME_SYSTEM    = UTC
MEAN_ELEMENT_THEORY = SGP/SGP4

EPOCH          = 2026-03-05T02:00:54.049824
MEAN_MOTION    = 15.11436955
ECCENTRICITY   = .00081225
INCLINATION    = 31.0029
RA_OF_ASC_NODE = 313.4527
ARG_OF_PERICENTER = 351.8434
MEAN_ANOMALY   = 8.2072

EPHEMERIS_TYPE = 0
CLASSIFICATION_TYPE = U
NORAD_CAT_ID   = 57800
ELEMENT_SET_NO = 999
REV_AT_EPOCH   = 13709
BSTAR          = .40305953E-3
MEAN_MOTION_DOT = .7086E-4
MEAN_MOTION_DDOT = 0

CCSDS_OMM_VERS = 2.0
CREATION_DATE  = 
ORIGINATOR     = 

OBJECT_NAME    = ACS3
OBJECT_ID      = 2024-077B
CENTER_NAME    = EARTH
REF_FRAME      = TEME
TIME_SYSTEM    = UTC
MEAN_ELEMENT_THEORY = SGP/SGP4

EPOCH          = 2026-03-05T05:59:08.145312
MEAN_MOTION    = 13.89370277
ECCENTRICITY   = .00564149
INCLINATION    = 97.2102
RA_OF_ASC_NODE = 6.3601
ARG_OF_PERICENTER = 88.4202
MEAN_ANOMALY   = 272.3422

EPHEMERIS_TYPE = 0
CLASSIFICATION_TYPE = U
NORAD_CAT_ID   = 59588
ELEMENT_SET_NO = 999
REV_AT_EPOCH   = 9358
BSTAR          = .19468964E-1
MEAN_MOTION_DOT = .24087E-3
MEAN_MOTION_DDOT = 0

CCSDS_OMM_VERS = 2.0
CREATION_DATE  = 
ORIGINATOR     = 

OBJECT_NAME    = SZ-21 MODULE
OBJECT_ID      = 2025-246C
CENTER_NAME    = EARTH
REF_FRAME      = TEME
TIME_SYSTEM    = UTC
MEAN_ELEMENT_THEORY = SGP/SGP4

EPOCH          = 2026-03-05T04:05:15.475200
MEAN_MOTION    = 15.68139607
ECCENTRICITY   = .00014689
INCLINATION    = 41.4734
RA_OF_ASC_NODE = 231.1730
ARG_OF_PERICENTER = 290.3140
MEAN_ANOMALY   = 69.7543

EPHEMERIS_TYPE = 0
CLASSIFICATION_TYPE = U
NORAD_CAT_ID   = 66515
ELEMENT_SET_NO = 999
REV_AT_EPOCH   = 1736
BSTAR          = .35896004E-3
MEAN_MOTION_DOT = .41059E-3
MEAN_MOTION_DDOT = 0

